INTELSAT 30 (IS-30)     
1 40271U 14062A   17315.51577095 -.00000167  00000-0  00000-0 0  9998
2 40271   0.0112 281.5054 0001815 179.9781  39.9884  1.00271698 11201
ARSAT 1                 
1 40272U 14062B   17315.46822292 -.00000276  00000-0  00000+0 0  9995
2 40272   0.0147 128.3940 0001414 129.2509 249.9081  1.00270003 11406
EXPRESS-AM6             
1 40277U 14064A   17315.53587587  .00000082  00000-0  00000+0 0  9999
2 40277   0.0189 278.9477 0000680  18.5868 359.2640  1.00271489 11186
GSAT-16                 
1 40332U 14078A   17314.70813560  .00000069  00000-0  00000-0 0  9993
2 40332   0.0770 274.7719 0003659 218.2450 227.0374  1.00271225 10646
DIRECTV 14              
1 40333U 14078B   17315.51577095 -.00000141  00000-0  00000-0 0  9996
2 40333   0.0162 293.2239 0000907  48.0685 156.0200  1.00271635 10696
YAMAL 401               
1 40345U 14082A   17315.58309804 -.00000245  00000-0  00000-0 0  9997
2 40345   0.0061 210.2589 0000476 356.9587 143.5689  1.00270084 10922
ASTRA 2G                
1 40364U 14089A   17314.78243395  .00000134  00000-0  00000-0 0  9994
2 40364   0.0497  66.2944 0000733 333.1695 320.5648  1.00272798 10479
FENGYUN 2G              
1 40367U 14090A   17315.63274212 -.00000346  00000-0  00000-0 0  9992
2 40367   0.1902 220.8533 0004247  69.1835  93.3637  1.00273980 10569
INMARSAT 5-F2           
1 40384U 15005A   17314.57893247 -.00000301  00000-0  00000+0 0  9995
2 40384   0.0182 273.5263 0000036 184.0276 105.8206  1.00271212 10185
ABS-3A                  
1 40424U 15010A   17313.87157258 -.00000040  00000-0  00000-0 0  9994
2 40424   0.0145 317.9686 0002386 183.8525 218.2211  1.00272407  9938
EUTELSAT 115 WEST B     
1 40425U 15010B   17315.17876318 -.00000040  00000-0  00000-0 0  9995
2 40425   0.0013 115.3582 0000330  14.2389 230.4058  1.00269067  9922
EXPRESS-AM7             
1 40505U 15012A   17315.54077068  .00000134  00000-0  00000-0 0  9995
2 40505   0.0064 278.8727 0002577 319.7813  46.9059  1.00269568  9874
IRNSS-1D                
1 40547U 15018A   17314.36458359 -.00000326  00000-0  00000-0 0  9996
2 40547  28.7999 292.7121 0019944 189.0618 170.8648  1.00279256  9500
THOR 7                  
1 40613U 15022A   17314.86232933 -.00000024  00000-0  00000-0 0  9993
2 40613   0.0429 102.1140 0002568 127.9692 129.9174  1.00271847  9335
TURKMENALEM52E/MONACOSAT
1 40617U 15023A   17314.71638595  .00000088  00000-0  00000-0 0  9995
2 40617   0.0114 320.1042 0001848 275.7005 124.2012  1.00269294  9357
DIRECTV 15              
1 40663U 15026A   17314.14795892 -.00000118  00000-0  00000+0 0  9994
2 40663   0.0077 282.1755 0000212 259.4023 178.4222  1.00271282  9047
SKY MEXICO-1            
1 40664U 15026B   17315.07876538 -.00000250  00000-0  00000-0 0  9993
2 40664   0.0130 279.8943 0002149 312.6042 127.4820  1.00270556  9078
METEOSAT-11 (MSG-4)     
1 40732U 15034A   17314.51617306 -.00000041  00000-0  00000-0 0  9990
2 40732   1.5849 231.8590 0001567  38.0710 322.4045  1.00275926  8551
STAR ONE C4             
1 40733U 15034B   17315.05438099 -.00000281  00000-0  00000+0 0  9996
2 40733   0.0540  76.9293 0002545 196.9735  86.0909  1.00271338  8555
INTELSAT 34 (IS-34)     
1 40874U 15039A   17315.01429991 -.00000301  00000-0  00000+0 0  9997
2 40874   0.0176 276.7397 0000268 323.2785 120.0022  1.00271705  8194
EUTELSAT 8 WEST B       
1 40875U 15039B   17314.88256235 -.00000081  00000-0  00000-0 0  9997
2 40875   0.0688  13.1825 0003240 230.7940 116.0131  1.00272630  8206
GSAT-6                  
1 40880U 15041A   17314.63024631 -.00000180  00000-0  00000+0 0  9991
2 40880   0.0732  93.5422 0009845 166.9602  99.4098  1.00270796  8149
INMARSAT 5-F3           
1 40882U 15042A   17315.36034589  .00000034  00000-0  00000+0 0  9995
2 40882   0.0191 276.1159 0000513  46.4236  37.4794  1.00271670  8073
TJS-1                   
1 40892U 15046A   17315.62720326 -.00000173  00000-0  00000-0 0  9996
2 40892   0.0024 305.7536 0007671  34.3667  91.6004  1.00268384  8077
EXPRESS-AM8             
1 40895U 15048A   17315.34277632 -.00000127  00000-0  00000+0 0  9995
2 40895   0.0089 321.4410 0000675 305.3245 253.3285  1.00271416  7894
SKY MUSTER (NBN1A)      
1 40940U 15054A   17314.47202196 -.00000294  00000-0  00000-0 0  9995
2 40940   0.0141 271.4236 0001742 324.6824 123.9014  1.00271849  7800
ARSAT 2                 
1 40941U 15054B   17315.08491027 -.00000241  00000-0  00000+0 0  9998
2 40941   0.0084 122.1707 0001986 123.0422 114.7664  1.00270788  7830
MORELOS 3               
1 40946U 15056A   17315.08792180 -.00000068  00000-0  00000+0 0  9996
2 40946   6.2347 329.1103 0000475   0.9107 358.9857  1.00273678  7803
APSTAR 9                
1 40982U 15059A   17315.46439722 -.00000282  00000-0  00000-0 0  9990
2 40982   0.0192 259.1024 0001864   7.3682  93.5081  1.00271785  7672
TURKSAT 4B              
1 40984U 15060A   17314.72201000  .00000099  00000-0  00000-0 0  9993
2 40984   0.0071  51.8629 0002259 186.7111 121.4039  1.00269971  7630
CHINASAT 2C (ZX 2C)     
1 41021U 15063A   17315.32609639 -.00000339  00000-0  00000+0 0  9993
2 41021   0.0099 132.0074 0003671 177.1128 322.3615  1.00268188  7529
GSAT-15                 
1 41028U 15065A   17315.59867545 -.00000275  00000-0  00000-0 0  9993
2 41028   0.0251 264.7190 0002873 326.2354 129.0421  1.00271983  7365
BADR-7 (ARABSAT-6B)     
1 41029U 15065B   17314.78838613  .00000129  00000-0  00000-0 0  9995
2 41029   0.0385 256.0514 0005864 340.7258 123.1898  1.00273581  7285
LAOSAT 1                
1 41034U 15067A   17315.50180649 -.00000359  00000-0  00000-0 0  9999
2 41034   0.0159 269.5167 0001886 267.8303 182.6762  1.00271958  7380
TELSTAR 12V             
1 41036U 15068A   17314.90205935 -.00000135  00000-0  00000+0 0  9992
2 41036   0.0142 276.1262 0002032 321.5929 122.2843  1.00271046  7243
CHINASAT 1C (ZX 1C)     
1 41103U 15073A   17314.05620660 -.00000166  00000-0  00000-0 0  9990
2 41103   0.0005  12.1749 0005821 267.3439 231.6642  1.00272331  7178
ELEKTRO-L 2             
1 41105U 15074A   17314.93868331 -.00000113  00000-0  00000+0 0  9990
2 41105   0.0435 358.7998 0003415 269.6636 195.7867  1.00272534  7032
COSMOS 2513             
1 41121U 15075A   17315.60736615 -.00000155  00000-0  00000-0 0  9990
2 41121   0.0789  92.5731 0004008 156.8140 100.4723  1.00270902  7116
EXPRESS-AMU1            
1 41191U 15082A   17315.01090907  .00000140  00000-0  00000-0 0  9990
2 41191   0.0110 261.8584 0002614 319.1837 229.3540  1.00272649  7024
GAOFEN 4                
1 41194U 15083A   17315.50206116 -.00000351  00000-0  00000-0 0  9994
2 41194   0.0248 285.0224 0005419 321.4200  90.8534  1.00273454  7001
BELINTERSAT-1           
1 41238U 16001A   17315.04143208  .00000091  00000-0  00000+0 0  9994
2 41238   0.0056 168.3441 0001420  31.3218 277.1547  1.00268424  6784
IRNSS-1E                
1 41241U 16003A   17314.86149344 -.00000268  00000-0  00000-0 0  9994
2 41241  29.0213 112.1546 0019552 177.4610 182.5398  1.00270592  6603
INTELSAT 29E (IS-29E)   
1 41308U 16004A   17314.99903336 -.00000298  00000-0  00000+0 0  9994
2 41308   0.0281 131.6853 0001763 103.4646 124.8564  1.00271053  6675
EUTELSAT 9B             
1 41310U 16005A   17314.83549182  .00000046  00000-0  00000-0 0  9997
2 41310   0.0601  93.5644 0005524 178.9741  87.4215  1.00270692  6631
SES-9                   
1 41380U 16013A   17314.56053536 -.00000360  00000-0  00000+0 0  9995
2 41380   0.0164 305.2742 0000879 277.0816 137.6613  1.00271163  6269
EUTELSAT 65 WEST A      
1 41382U 16014A   17315.04108222 -.00000292  00000-0  00000-0 0  9990
2 41382   0.0553  27.5549 0001899 216.2340 116.2143  1.00269923  6084
IRNSS-1F                
1 41384U 16015A   17314.49750713  .00000140  00000-0  00000-0 0  9990
2 41384   3.8600 261.3958 0017324 184.4074 175.6238  1.00272565  6206
IRNSS-1G                
1 41469U 16027A   17315.22973197 -.00000354  00000-0  00000-0 0  9990
2 41469   3.9292 262.8509 0003604 195.3450 164.6714  1.00274509  5713
JCSAT 2B                
1 41471U 16028A   17315.43115936 -.00000181  00000-0  00000+0 0  9993
2 41471   0.0187 277.5543 0001947 321.2818 121.1448  1.00270445  5609
THAICOM 8               
1 41552U 16031A   17313.64565960 -.00000136  00000-0  00000-0 0  9995
2 41552   0.0606  43.0704 0002282 270.8243  46.1126  1.00273895  5234
INTELSAT 31 (IS-31)     
1 41581U 16035A   17315.12385280 -.00000166  00000-0  00000-0 0  9994
2 41581   0.0146 249.9904 0001682 333.3116 136.7075  1.00271014  5208
BEIDOU G7               
1 41586U 16037A   17315.36251353 -.00000265  00000-0  00000-0 0  9990
2 41586   1.0223 326.5906 0003927 284.3034  74.8757  1.00273605  5311
ABS-2A (MONGOLSAT-1)    
1 41588U 16038A   17314.65363591 -.00000100  00000-0  00000-0 0  9990
2 41588   0.0142  92.5569 0001434  49.0445 218.4324  1.00273162  5235
EUTELSAT 117 WEST B     
1 41589U 16038B   17315.18454114 -.00000028  00000-0  00000+0 0  9990
2 41589   0.0026  74.0067 0000253  18.2012 267.7950  1.00271887  5235
BRISAT                  
1 41591U 16039A   17314.44357331 -.00000211  00000-0  00000-0 0  9990
2 41591   0.0176 279.9408 0002186 310.9613 129.1025  1.00271940  5149
ECHOSTAR 18             
1 41592U 16039B   17315.03038555 -.00000298  00000-0  00000-0 0  9996
2 41592   0.0442 101.6337 0002093 146.0416 112.3254  1.00271273  5152
TIANTONG-1 1            
1 41725U 16048A   17315.66279199 -.00000339  00000-0  00000-0 0  9990
2 41725   4.3774 325.6384 0005890 336.9135  88.4477  1.00273604  4790
JCSAT-16                
1 41729U 16050A   17314.41156826 -.00000107  00000-0  00000-0 0  9993
2 41729   0.0155 272.2356 0001863 329.8297 117.9159  1.00270025  4577
INTELSAT 36 (IS-36)     
1 41747U 16053A   17314.67078385 -.00000040  00000-0  00000+0 0  9992
2 41747   0.0186 344.0969 0003453 351.0951  24.8152  1.00271465  4488
